H1 CPF 01  gfz 2022 04 14 00  6041 terrasarx 
H2 0702601  6201 31698    2022 04 14 00 59 42 2022 04 19 00 00 42   120 1 1  0 0 0
H9
10 0 59687  55422.000000  0    -674541.273  -1678307.798   6636128.636
10 0 59687  55542.000000  0   -1389573.964  -2193402.303   6369910.239
10 0 59687  55662.000000  0   -2088927.459  -2657838.141   5991727.686
10 0 59687  55782.000000  0   -2759429.166  -3063883.100   5508191.700
10 0 59687  55902.000000  0   -3388274.784  -3405044.653   4927767.848
10 0 59687  56022.000000  0   -3963277.921  -3676177.458   4260632.802
10 0 59687  56142.000000  0   -4473110.433  -3873563.635   3518499.316
10 0 59687  56262.000000  0   -4907530.403  -3994964.993   2714413.264
10 0 59687  56382.000000  0   -5257593.892  -4039646.446   1862524.908
10 0 59687  56502.000000  0   -5515844.327  -4008368.666    977835.771
10 0 59687  56622.000000  0   -5676473.683  -3903349.125     75928.128
10 0 59687  56742.000000  0   -5735452.055  -3728193.378   -827317.505
10 0 59687  56862.000000  0   -5690621.839  -3487797.973  -1716011.767
10 0 59687  56982.000000  0   -5541752.320  -3188226.278  -2574545.395
10 0 59687  57102.000000  0   -5290555.111  -2836562.418  -3387869.053
10 0 59687  57222.000000  0   -4940661.107  -2440747.223  -4141759.999
10 0 59687  57342.000000  0   -4497560.201  -2009400.328  -4823069.952
10 0 59687  57462.000000  0   -3968505.434  -1551633.454  -5419950.295
10 0 59687  57582.000000  0   -3362384.508  -1076858.483  -5922050.719
10 0 59687  57702.000000  0   -2689562.444   -594595.103  -6320688.202
10 0 59687  57822.000000  0   -1961699.071   -114282.381  -6608985.785
10 0 59687  57942.000000  0   -1191544.242    354902.010  -6781979.407
10 0 59687  58062.000000  0    -392716.782    804211.902  -6836693.281
10 0 59687  58182.000000  0     420531.153   1225491.571  -6772185.287
10 0 59687  58302.000000  0    1233561.011   1611319.057  -6589562.263
10 0 59687  58422.000000  0    2031606.050   1955134.747  -6291965.087
10 0 59687  58542.000000  0    2800034.475   2251351.959  -5884520.192
10 0 59687  58662.000000  0    3524614.281   2495447.591  -5374259.383
10 0 59687  58782.000000  0    4191774.793   2684031.885  -4770009.900
10 0 59687  58902.000000  0    4788863.948   2814896.890  -4082253.614
10 0 59687  59022.000000  0    5304393.935   2887041.222  -3322954.379
10 0 59687  59142.000000  0    5728269.036   2900670.742  -2505357.703
10 0 59687  59262.000000  0    6051993.777   2857175.694  -1643764.679
10 0 59687  59382.000000  0    6268852.411   2759081.942   -753281.037
10 0 59687  59502.000000  0    6374056.046   2609978.795    150450.800
10 0 59687  59622.000000  0    6364852.173   2414423.306   1051533.787
10 0 59687  59742.000000  0    6240593.717   2177824.733   1934102.395
10 0 59687  59862.000000  0    6002767.969   1906312.987   2782611.109
10 0 59687  59982.000000  0    5654980.488   1606591.463   3582117.175
10 0 59687  60102.000000  0    5202896.277   1285780.175   4318550.708
10 0 59687  60222.000000  0    4654138.888    951252.474   4978965.328
10 0 59687  60342.000000  0    4018153.871    610470.619   5551765.890
10 0 59687  60462.000000  0    3306036.297    270822.208   6026910.939
10 0 59687  60582.000000  0    2530327.648    -60536.656   6396082.689
10 0 59687  60702.000000  0    1704789.916   -376828.493   6652826.047
10 0 59687  60822.000000  0     844158.118   -671790.702   6792656.814
10 0 59687  60942.000000  0     -36125.667   -939798.290   6813135.393
10 0 59687  61062.000000  0    -920189.571  -1175970.168   6713905.584
10 0 59687  61182.000000  0   -1792017.183  -1376258.158   6496699.531
10 0 59687  61302.000000  0   -2635735.880  -1537516.036   6165308.342
10 0 59687  61422.000000  0   -3435904.295  -1657548.197   5725521.726
10 0 59687  61542.000000  0   -4177798.693  -1735139.011   5185034.720
10 0 59687  61662.000000  0   -4847689.520  -1770061.449   4553318.451
10 0 59687  61782.000000  0   -5433102.807  -1763063.606   3841458.408
10 0 59687  61902.000000  0   -5923060.018  -1715833.122   3061962.390
10 0 59687  62022.000000  0   -6308292.420  -1630941.163   2228542.681
10 0 59687  62142.000000  0   -6581427.257  -1511767.687   1355873.803
10 0 59687  62262.000000  0   -6737137.155  -1362408.195    459327.298
10 0 59687  62382.000000  0   -6772248.140  -1187564.216   -445306.883
10 0 59687  62502.000000  0   -6685804.621   -992420.826  -1342107.662
10 0 59687  62622.000000  0   -6479089.083   -782514.433  -2215311.778
10 0 59687  62742.000000  0   -6155597.367   -563594.845  -3049597.373
10 0 59687  62862.000000  0   -5720970.393   -341485.098  -3830358.301
10 0 59687  62982.000000  0   -5182883.079   -121940.720  -4543961.413
10 0 59687  63102.000000  0   -4550895.618     89486.392  -5177981.531
10 0 59687  63222.000000  0   -3836271.724    287576.212  -5721411.807
10 0 59687  63342.000000  0   -3051766.894    467558.053  -6164845.189
10 0 59687  63462.000000  0   -2211394.123    625215.328  -6500624.659
10 0 59687  63582.000000  0   -1330171.864    756975.543  -6722964.336
10 0 59687  63702.000000  0    -423856.563    859984.802  -6828038.847
10 0 59687  63822.000000  0     491333.506    932165.397  -6814040.427
10 0 59687  63942.000000  0    1399000.034    972255.147  -6681208.072
10 0 59687  64062.000000  0    2282852.807    979829.126  -6431825.828
10 0 59687  64182.000000  0    3126996.527    955303.100  -6070187.481
10 0 59687  64302.000000  0    3916212.678    899918.336  -5602529.280
10 0 59687  64422.000000  0    4636231.959    815707.586  -5036933.010
10 0 59687  64542.000000  0    5273995.391    705443.483  -4383198.249
10 0 59687  64662.000000  0    5817898.196    572569.855  -3652682.881
10 0 59687  64782.000000  0    6258010.189    421116.532  -2858114.480
10 0 59687  64902.000000  0    6586269.123    255600.007  -2013375.191
10 0 59687  65022.000000  0    6796642.211     80911.203  -1133260.912
10 0 59687  65142.000000  0    6885248.180    -97806.594   -233219.522
10 0 59687  65262.000000  0    6850438.188   -275286.396    670924.775
10 0 59687  65382.000000  0    6692833.368   -446270.680   1563257.202
10 0 59687  65502.000000  0    6415316.423   -605644.770   2428061.459
10 0 59687  65622.000000  0    6022976.726   -748567.173   3250106.348
10 0 59687  65742.000000  0    5523010.027   -870593.185   4014920.610
10 0 59687  65862.000000  0    4924579.358   -967788.922   4709052.071
10 0 59687  65982.000000  0    4238636.704  -1036833.680   5320306.676
10 0 59687  66102.000000  0    3477712.063  -1075105.922   5837961.065
10 0 59687  66222.000000  0    2655675.733  -1080753.177   6252946.843
10 0 59687  66342.000000  0    1787478.770  -1052744.296   6558003.664
10 0 59687  66462.000000  0     888876.754   -990903.117   6747801.304
10 0 59687  66582.000000  0     -23859.640   -895922.091   6819027.074
10 0 59687  66702.000000  0    -934239.547   -769356.294   6770438.608
10 0 59687  66822.000000  0   -1825848.448   -613598.192   6602883.509
10 0 59687  66942.000000  0   -2682642.500   -431832.742   6319285.335
10 0 59687  67062.000000  0   -3489236.520   -227974.000   5924596.884
10 0 59687  67182.000000  0   -4231182.648     -6584.098   5425719.978
10 0 59687  67302.000000  0   -4895234.463    227224.117   4831390.986
10 0 59687  67422.000000  0   -5469590.780    467898.617   4152033.178
10 0 59687  67542.000000  0   -5944114.190    709572.579   3399577.477
10 0 59687  67662.000000  0   -6310519.209    946198.729   2587255.230
10 0 59687  67782.000000  0   -6562526.938   1171690.759   1729364.741
10 0 59687  67902.000000  0   -6695981.334   1380067.943    841015.882
10 0 59687  68022.000000  0   -6708924.084   1565600.000    -62143.210
10 0 59687  68142.000000  0   -6601623.948   1722948.091   -964211.004
10 0 59687  68262.000000  0   -6376560.786   1847297.650  -1849321.234
10 0 59687  68382.000000  0   -6038366.382   1934480.950  -2701929.605
10 0 59687  68502.000000  0   -5593721.882   1981086.121  -3507094.018
10 0 59687  68622.000000  0   -5051214.446   1984548.544  -4250739.822
10 0 59687  68742.000000  0   -4421159.177   1943223.410  -4919904.316
10 0 59687  68862.000000  0   -3715391.432   1856438.260  -5502957.039
10 0 59687  68982.000000  0   -2947035.818   1724524.946  -5989792.652
10 0 59687  69102.000000  0   -2130256.964   1548830.403  -6371996.035
10 0 59687  69222.000000  0   -1279994.910   1331706.384  -6642976.656
10 0 59687  69342.000000  0    -411692.926   1076478.309  -6798069.995
10 0 59687  69462.000000  0     458977.685    787394.521  -6834608.356
10 0 59687  69582.000000  0    1316392.514    469557.154  -6751963.002
10 0 59687  69702.000000  0    2145249.240    128833.832  -6551555.135
10 0 59687  69822.000000  0    2930834.551   -228247.662  -6236833.385
10 0 59687  69942.000000  0    3659281.772   -594620.193  -5813221.024
10 0 59687  70062.000000  0    4317813.292   -962812.351  -5288030.850
10 0 59687  70182.000000  0    4894966.802  -1325095.825  -4670351.437
10 0 59687  70302.000000  0    5380801.432  -1673643.512  -3970901.133
10 0 59687  70422.000000  0    5767077.967  -2000694.056  -3201851.776
10 0 59687  70542.000000  0    6047409.666  -2298720.229  -2376623.903
10 0 59687  70662.000000  0    6217379.159  -2560597.384  -1509655.813
10 0 59687  70782.000000  0    6274617.918  -2779767.412   -616150.928
10 0 59687  70902.000000  0    6218846.434  -2950394.462    288192.264
10 0 59687  71022.000000  0    6051872.863  -3067508.142   1187462.299
10 0 59687  71142.000000  0    5777550.201  -3127130.369   2065823.890
10 0 59687  71262.000000  0    5401689.692  -3126382.062   2907806.228
10 0 59687  71382.000000  0    4931936.047  -3063567.131   3698583.345
10 0 59687  71502.000000  0    4377606.467  -2938230.420   4424240.463
10 0 59687  71622.000000  0    3749500.425  -2751191.056   5072021.648
10 0 59687  71742.000000  0    3059680.810  -2504549.294   5630555.512
10 0 59687  71862.000000  0    2321234.282  -2201665.452   6090051.439
99
